<span class="comment">% Plot view from inertial observer</span>
figure(1);
clf;
<span class="comment">% Draw earth sphere for reference</span>
surface(xeplot, yeplot, zeplot, <span class="string">'FaceColor'</span>, <span class="string">'blue'</span>, <span class="string">'EdgeColor'</span>, <span class="string">'black'</span>);
hold <span class="string">on</span>;
axis <span class="string">equal</span>;
view(3);
grid <span class="string">on</span>;
set(gca,<span class="string">'XLim'</span>, [-50000 +50000], <span class="keyword">...</span>
        <span class="string">'YLim'</span>, [-50000 +50000], <span class="keyword">...</span>
        <span class="string">'ZLim'</span>, [-50000 +50000], <span class="keyword">...</span>
        <span class="string">'XTick'</span>, [-50000:10000:+50000], <span class="keyword">...</span>
        <span class="string">'YTick'</span>, [-50000:10000:+50000], <span class="keyword">...</span>
        <span class="string">'ZTick'</span>, [-50000:10000:+50000]);
title(<span class="string">'Problem 3.3 - Inertial Observer View'</span>);
xlabel(<span class="string">'X [km]'</span>);
ylabel(<span class="string">'Y [km]'</span>);
zlabel(<span class="string">'Z [km]'</span>);
plot3(O_r_S__eci(:,1), <span class="keyword">...</span>
      O_r_S__eci(:,2), <span class="keyword">...</span>
      O_r_S__eci(:,3), <span class="keyword">...</span>
      <span class="string">'Color'</span>, plotcolor, <span class="string">'LineStyle'</span>, <span class="string">'-'</span>, <span class="string">'LineWidth'</span>, 2);
plot3(O_r_S__eci(1:ticki:end,1), <span class="keyword">...</span>
      O_r_S__eci(1:ticki:end,2), <span class="keyword">...</span>
      O_r_S__eci(1:ticki:end,3), <span class="keyword">...</span>
      <span class="string">'Color'</span>, plotcolor, <span class="string">'LineStyle'</span>, <span class="string">'none'</span>, <span class="keyword">...</span>
      <span class="string">'Marker'</span>, <span class="string">'o'</span>, <span class="string">'MarkerFaceColor'</span>, plotcolor, <span class="string">'MarkerSize'</span>, 5);

<span class="comment">% Plot view from earth-fixed observer</span>
figure(2);
clf;
<span class="comment">% Draw earth sphere for reference</span>
surface(xeplot, yeplot, zeplot, <span class="string">'FaceColor'</span>, <span class="string">'blue'</span>, <span class="string">'EdgeColor'</span>, <span class="string">'black'</span>);
hold <span class="string">on</span>;
axis <span class="string">equal</span>;
view(3);
grid <span class="string">on</span>;
set(gca,<span class="string">'XLim'</span>, [-50000 +50000], <span class="keyword">...</span>
        <span class="string">'YLim'</span>, [-50000 +50000], <span class="keyword">...</span>
        <span class="string">'ZLim'</span>, [-50000 +50000], <span class="keyword">...</span>
        <span class="string">'XTick'</span>, [-50000:10000:+50000], <span class="keyword">...</span>
        <span class="string">'YTick'</span>, [-50000:10000:+50000], <span class="keyword">...</span>
        <span class="string">'ZTick'</span>, [-50000:10000:+50000]);
title(<span class="string">'Problem 3.3 - Earth-Fixed Observer View'</span>);
xlabel(<span class="string">'X [km]'</span>);
ylabel(<span class="string">'Y [km]'</span>);
zlabel(<span class="string">'Z [km]'</span>);
plot3(O_r_S__ecef(:,1), <span class="keyword">...</span>
      O_r_S__ecef(:,2), <span class="keyword">...</span>
      O_r_S__ecef(:,3), <span class="keyword">...</span>
      <span class="string">'Color'</span>, plotcolor, <span class="string">'LineStyle'</span>, <span class="string">'-'</span>, <span class="string">'LineWidth'</span>, 2);
plot3(O_r_S__ecef(1:ticki:end,1), <span class="keyword">...</span>
      O_r_S__ecef(1:ticki:end,2), <span class="keyword">...</span>
      O_r_S__ecef(1:ticki:end,3), <span class="keyword">...</span>
      <span class="string">'Color'</span>, plotcolor, <span class="string">'LineStyle'</span>, <span class="string">'none'</span>, <span class="keyword">...</span>
      <span class="string">'Marker'</span>, <span class="string">'o'</span>, <span class="string">'MarkerFaceColor'</span>, plotcolor, <span class="string">'MarkerSize'</span>, 5);

<span class="comment">% Plot groundtrack</span>
figure(3);
clf;
<span class="comment">% Draw earth outline map for reference.  'contour' command may work</span>
<span class="comment">% differently in older versions of MATLAB</span>
contour(-180:179, -90:+89, topoplot, [0 0], <span class="string">'blue'</span>);
hold <span class="string">on</span>;
axis <span class="string">equal</span>;
grid <span class="string">on</span>;
set(gca,<span class="string">'XLim'</span>, [-180 +180], <span class="string">'YLim'</span>, [-90 +90], <span class="keyword">...</span>
        <span class="string">'XTick'</span>, [-180:30:+180], <span class="string">'Ytick'</span>, [-90:30:+90]);
title(<span class="string">'Problem 3.3 - Ground Track'</span>);
xlabel(<span class="string">'Longitude [deg]'</span>);
ylabel(<span class="string">'Latitude [deg]'</span>);
<span class="comment">% Use 'markers' instead of 'lines' for this plot to avoid distracting</span>
<span class="comment">% jumps in plot for data that crosses 180 [deg] longitude</span>
plot(lon_S*180.0/pi, lat_S*180.0/pi, <span class="keyword">...</span>
     <span class="string">'Color'</span>, plotcolor, <span class="string">'LineStyle'</span>, <span class="string">'none'</span>, <span class="keyword">...</span>
     <span class="string">'Marker'</span>, <span class="string">'o'</span>, <span class="string">'MarkerFaceColor'</span>, plotcolor, <span class="string">'MarkerSize'</span>, 2);
plot(lon_S(1:ticki:end)*180.0/pi, lat_S(1:ticki:end)*180.0/pi, <span class="keyword">...</span>
     <span class="string">'Color'</span>, plotcolor, <span class="string">'LineStyle'</span>, <span class="string">'none'</span>, <span class="keyword">...</span>
     <span class="string">'Marker'</span>, <span class="string">'o'</span>, <span class="string">'MarkerFaceColor'</span>, plotcolor, <span class="string">'MarkerSize'</span>, 5);
</pre><img vspace="5" hspace="5" src="problem3_3_template_01.png" alt=""> <img vspace="5" hspace="5" src="problem3_3_template_02.png" alt=""> <img vspace="5" hspace="5" src="problem3_3_template_03.png" alt=""> <p class="footer"><br>
      Published with MATLAB&reg; 7.9<br></p></div><!--
##### SOURCE BEGIN #####
% AA 279 Spring 2012  Problem 3.3 TEMPLATE
% Andrew K. Barrows
close all; clear all;

% Earth physical constants from Vallado
muearth = 398600.4418;              % [km^3/sec^2]
reearth =   6378.137;               % [km] mean equatorial radius
rotEarthRad = 0.0000729211585530;  % [rad/sec]
rotEarthDay = 1.0027379093;  %rev/day
rotEarthDay = rotEarthRad*3600*24/(2*pi);
e2earth =      0.006694385000;      % oblate eccentricity squared

% Greenwich Sidereal Time at 0000h 1 January 2012 UTC
% from US Naval Observatory website
gst2012start = 6.6706801; % [sidereal hours] from vernal equinox

%convert to rad
gst2012start = gst2012start * 2*pi/24;    %[rad]

% Raw Two Line Element satellite data from celestrak.com April 2012
%{
GPS BIIRM-3 (PRN 12)    
1 29601U 06052A   12104.16441319 -.00000023  00000-0  10000-3 0  6951
2 29601  56.1095  57.6374 0039356 355.0140   4.9311  2.00579332 39609

CRW (WAAS/PRN 135)      
1 28884U 05041A   12103.19604237  .00000055  00000-0  10000-3 0  3188
2 28884   0.0631  59.8205 0002556 318.2465 120.2737  1.00271972 23813

ISS (ZARYA)             
1 25544U 98067A   12105.84482193  .00014439  00000-0  19290-3 0  3751
2 25544  51.6438  79.3991 0007455 276.0481 165.2996 15.58297430768144
%}

%
% % GPS BIIRM-3 data hand-parsed from TLE data
yearo      = 2012;          % epoch year
to         =  104.16441319; % [day] epoch as day of year plus fraction
inc        =   56.1095;     % [deg]
RAAN       =   57.6374;     % [deg]
ecc          =    0.0039356;
omega      =  355.0140;     % [deg]
Mo         =    4.9311;     % [deg] 
meanmotion =    2.00579332; % [rev/day]
%

%{
% Galaxy 15 / WAAS/PRN 135 data hand-parsed from TLE data
yearo      = 2012;          % epoch year
to         =  103.19604237; % [day] epoch as day of year plus fraction
inc        =    0.0631;     % [deg]
RAAN       =   59.8205;     % [deg]
ecc          =    0.0002556;
omega      =  318.2465;     % [deg]
Mo         =  120.2737;     % [deg] 
meanmotion =    1.00271972; % [rev/day]
%}


% ISS data hand-parsed from TLE data
% yearo      = 2012;          % epoch year
% to         =  105.84482193; % [day] epoch as day of year plus fraction
% inc        =   51.6438;     % [deg]
% RAAN       =   79.3991;     % [deg]
% ecc          =    0.0007455;
% omega      =  276.0481;     % [deg]
% Mo         =  165.2996;     % [deg] 
% meanmotion =   15.58297430; % [rev/day]


%convert the elements from degrees to radians
inc = inc*pi/180;
RAAN = RAAN*pi/180;
omega = omega*pi/180;
Mo = Mo*pi/180;


% Setup simulation time vector
t = 1:(24*60*60);
% t = ((to - 105)*24*60*60):(24*60*60);

% Calculate orbital parameters
n = (meanmotion*2.0*pi)/(24*60*60);        % [rad/sec]
p = ((muearth/(n*n))^(1.0/3.0))*(1.0-ecc*ecc); % [km]

eci_C_peri = PERI_C_ECI(RAAN,inc,omega)';             
% Notation note for eci_C_peri: This transforms from perifocal coordinates
% to ECI coordinates according to r_eci = eci_C_peri * r_peri
   
% Set aside space for data
% Nx3 matrices store eci or ecef positions at N datapoints.  Each row
% is one timestep, and columns 1, 2, and 3 hold the three components.
O_r_S__eci  = zeros(length(t),3); % [km]  Sat position in ECI coordinates
O_r_S__ecef = zeros(length(t),3); % [km]  Sat position in ECEF coordinates
lat_S       = zeros(length(t),1); % [rad] Satellite geodetic latitude
lon_S       = zeros(length(t),1); % [rad] Satellite longitude
he_S        = zeros(length(t),1); % [km]  Satellite height above ellipsoid

